{"type":"FeatureCollection","features":[{"type":"Feature","geometry":{"type":"Polygon","coordinates":[[[19.788561,42.49093],[19.768211,42.476233],[19.74636,42.436295],[19.774861,42.434141],[19.781764,42.453634],[19.792961,42.467389],[19.820054,42.483248],[19.842195,42.497968],[19.850571,42.506662],[19.84323,42.513482],[19.837473,42.513863],[19.824456,42.510644],[19.810373,42.504333],[19.798578,42.496565],[19.788561,42.49093]]]},"properties":{}},{"type":"Feature","geometry":{"type":"Polygon","coordinates":[[[19.890341,42.447728],[19.917624,42.451517],[19.917337,42.452514],[19.954804,42.445602],[19.975115,42.472032],[19.971774,42.498524],[19.948958,42.50285],[19.924339,42.501421],[19.894795,42.492281],[19.867717,42.488788],[19.865481,42.478005],[19.870912,42.452991],[19.890341,42.447728]]]},"properties":{}},{"type":"Feature","properties":{},"geometry":{"type":"Polygon","coordinates":[[[20.03238,42.570894],[20.07869,42.553434],[20.090966,42.570707],[20.089865,42.58785],[20.083092,42.598882],[20.075727,42.609351],[20.062943,42.616018],[20.040846,42.615457],[20.022728,42.610784],[20.021797,42.589907],[20.029332,42.575071],[20.029332,42.575071],[20.029332,42.575071],[20.03238,42.570894]]]}}]}